{
    "links": {
        "self": "http://www.neowsapp.com/rest/v1/neo/3159890?api_key=iIulBulltgU6a56xZRHN4H3l9WmuAYTsLGpBGhQ2"
    },
    "id": "3159890",
    "neo_reference_id": "3159890",
    "name": "(2003 RD5)",
    "designation": "2003 RD5",
    "nasa_jpl_url": "http://ssd.jpl.nasa.gov/sbdb.cgi?sstr=3159890",
    "absolute_magnitude_h": 23.4,
    "estimated_diameter": {
        "kilometers": {
            "estimated_diameter_min": 0.0555334912,
            "estimated_diameter_max": 0.1241766613
        },
        "meters": {
            "estimated_diameter_min": 55.5334911581,
            "estimated_diameter_max": 124.1766612574
        },
        "miles": {
            "estimated_diameter_min": 0.0345069009,
            "estimated_diameter_max": 0.0771597762
        },
        "feet": {
            "estimated_diameter_min": 182.1964991311,
            "estimated_diameter_max": 407.4037573197
        }
    },
    "is_potentially_hazardous_asteroid": false,
    "close_approach_data": [
        {
            "close_approach_date": "2003-08-23",
            "close_approach_date_full": "2003-Aug-23 10:57",
            "epoch_date_close_approach": 1061636220000,
            "relative_velocity": {
                "kilometers_per_second": "5.5303363412",
                "kilometers_per_hour": "19909.2108284218",
                "miles_per_hour": "12370.8093616936"
            },
            "miss_distance": {
                "astronomical": "0.0487597352",
                "lunar": "18.9675369928",
                "kilometers": "7294352.527684024",
                "miles": "4532500.4858625712"
            },
            "orbiting_body": "Earth"
        }
    ],
    "orbital_data": {
        "orbit_id": "10",
        "orbit_determination_date": "2017-04-06 09:13:53",
        "first_observation_date": "2003-09-01",
        "last_observation_date": "2003-09-18",
        "data_arc_in_days": 17,
        "observations_used": 21,
        "orbit_uncertainty": "8",
        "minimum_orbit_intersection": ".0445137",
        "jupiter_tisserand_invariant": "4.714",
        "epoch_osculation": "2452890.5",
        "eccentricity": ".2470662498728821",
        "semi_major_axis": "1.398344761797064",
        "inclination": "8.715204646667592",
        "ascending_node_longitude": "155.906721370924",
        "orbital_period": "603.9761879562537",
        "perihelion_distance": "1.052860965470475",
        "perihelion_argument": "170.0509359728146",
        "aphelion_distance": "1.743828558123654",
        "perihelion_time": "2452870.079002997001",
        "mean_anomaly": "12.1719350326641",
        "mean_motion": ".5960499886894133",
        "equinox": "J2000",
        "orbit_class": {
            "orbit_class_type": "AMO",
            "orbit_class_description": "Near-Earth asteroid orbits similar to that of 1221 Amor",
            "orbit_class_range": "1.017 AU < q (perihelion) < 1.3 AU"
        }
    },
    "is_sentry_object": false
}